$$SOE
2461295.500000000, A.D. 2026-Sep-12 00:00:00.0000, -1.155357732640632E+08, -2.980944878158945E+08, -2.832763682597500E+07,
2461302.500000000, A.D. 2026-Sep-19 00:00:00.0000, -1.041831779001409E+08, -3.034307321904096E+08, -2.814434476647842E+07,
2461309.500000000, A.D. 2026-Sep-26 00:00:00.0000, -9.267914650705159E+07, -3.083260637960473E+08, -2.792015233867432E+07,
2461316.500000000, A.D. 2026-Oct-03 00:00:00.0000, -8.104178222117874E+07, -3.127779786500576E+08, -2.765580249294351E+07,
2461323.500000000, A.D. 2026-Oct-10 00:00:00.0000, -6.928903167869648E+07, -3.167847424395244E+08, -2.735208796379717E+07,
2461330.500000000, A.D. 2026-Oct-17 00:00:00.0000, -5.743865287415395E+07, -3.203453643334430E+08, -2.700984764712566E+07,
2461337.500000000, A.D. 2026-Oct-24 00:00:00.0000, -4.550818572241449E+07, -3.234595699455235E+08, -2.662996305276653E+07,
2461344.500000000, A.D. 2026-Oct-31 00:00:00.0000, -3.351492517518234E+07, -3.261277737516583E+08, -2.621335486211711E+07,
2461351.500000000, A.D. 2026-Nov-07 00:00:00.0000, -2.147589648675184E+07, -3.283510511073162E+08, -2.576097962850277E+07,
2461358.500000000, A.D. 2026-Nov-14 00:00:00.0000, -9.407832346937681E+06, -3.301311091787346E+08, -2.527382657668070E+07,
2461365.500000000, A.D. 2026-Nov-21 00:00:00.0000, 2.672846400487072E+06, -3.314702562886208E+08, -2.475291428805298E+07,
2461372.500000000, A.D. 2026-Nov-28 00:00:00.0000, 1.475004556012472E+07, -3.323713728481456E+08, -2.419928743264125E+07,
2461379.500000000, A.D. 2026-Dec-05 00:00:00.0000, 2.680801164075717E+07, -3.328378846811581E+08, -2.361401393898566E+07,
2461386.500000000, A.D. 2026-Dec-12 00:00:00.0000, 3.883134544693204E+07, -3.328737357660987E+08, -2.299818236695929E+07,
2461393.500000000, A.D. 2026-Dec-19 00:00:00.0000, 5.080501343897066E+07, -3.324833605085363E+08, -2.235289931230457E+07,
2461400.500000000, A.D. 2026-Dec-26 00:00:00.0000, 6.271435684109661E+07, -3.316716565150455E+08, -2.167928690183070E+07,
2461407.500000000, A.D. 2027-Jan-02 00:00:00.0000, 7.454509889597301E+07, -3.304439581472889E+08, -2.097848042012188E+07,
2461414.500000000, A.D. 2027-Jan-09 00:00:00.0000, 8.628335050369093E+07, -3.288060109096466E+08, -2.025162607580654E+07,
2461421.500000000, A.D. 2027-Jan-16 00:00:00.0000, 9.791561440016846E+07, -3.267639467209558E+08, -1.949987890817392E+07,
2461428.500000000, A.D. 2027-Jan-23 00:00:00.0000, 1.094287880396991E+08, -3.243242601580866E+08, -1.872440083941649E+07,
2461435.500000000, A.D. 2027-Jan-30 00:00:00.0000, 1.208101654855957E+08, -3.214937857594430E+08, -1.792635889090662E+07,
2461442.500000000, A.D. 2027-Feb-06 00:00:00.0000, 1.320474388445311E+08, -3.182796760808367E+08, -1.710692357123411E+07,
2461449.500000000, A.D. 2027-Feb-13 00:00:00.0000, 1.431286988890954E+08, -3.146893793066223E+08, -1.626726729005532E+07,
2461456.500000000, A.D. 2027-Feb-20 00:00:00.0000, 1.540424326042010E+08, -3.107306172184032E+08, -1.540856264121982E+07,
2461463.500000000, A.D. 2027-Feb-27 00:00:00.0000, 1.647775191493643E+08, -3.064113667362475E+08, -1.453198094141035E+07,
2461470.500000000, A.D. 2027-Mar-06 00:00:00.0000, 1.753232273490354E+08, -3.017398431070840E+08, -1.363869113953932E+07,
2461477.500000000, A.D. 2027-Mar-13 00:00:00.0000, 1.856692132001610E+08, -2.967244826858842E+08, -1.272985877794138E+07,
2461484.500000000, A.D. 2027-Mar-20 00:00:00.0000, 1.958055163509472E+08, -2.913739261345211E+08, -1.180664496502236E+07,
2461491.500000000, A.D. 2027-Mar-27 00:00:00.0000, 2.057225558308095E+08, -2.856970025731075E+08, -1.087020541761494E+07,
2461498.500000000, A.D. 2027-Apr-03 00:00:00.0000, 2.154111253065374E+08, -2.797027147145405E+08, -9.921689590223774E+06,
2461505.500000000, A.D. 2027-Apr-10 00:00:00.0000, 2.248623879905199E+08, -2.734002249392853E+08, -8.962239889392614E+06,
2461512.500000000, A.D. 2027-Apr-17 00:00:00.0000, 2.340678712789604E+08, -2.667988422996048E+08, -7.992990970971078E+06,
2461519.500000000, A.D. 2027-Apr-24 00:00:00.0000, 2.430194612490035E+08, -2.599080104823981E+08, -7.015069127738908E+06,
2461526.500000000, A.D. 2027-May-01 00:00:00.0000, 2.517093973648768E+08, -2.527372966645125E+08, -6.029591788342223E+06,
2461533.500000000, A.D. 2027-May-08 00:00:00.0000, 2.601302677550958E+08, -2.452963804771217E+08, -5.037667090488508E+06,
2461540.500000000, A.D. 2027-May-15 00:00:00.0000, 2.682750036171471E+08, -2.375950420985202E+08, -4.040393308890656E+06,
2461547.500000000, A.D. 2027-May-22 00:00:00.0000, 2.761368712303004E+08, -2.296431520420352E+08, -3.038858201891974E+06,
2461554.500000000, A.D. 2027-May-29 00:00:00.0000, 2.837094649687400E+08, -2.214506640789803E+08, -2.034138700095445E+06,
2461561.500000000, A.D. 2027-Jun-05 00:00:00.0000, 2.909867022326141E+08, -2.130276081350326E+08, -1.027300757667899E+06,
2461568.500000000, A.D. 2027-Jun-12 00:00:00.0000, 2.979628183189203E+08, -2.043840826979862E+08, -1.939914249512553E+04,
2461575.500000000, A.D. 2027-Jun-19 00:00:00.0000, 3.046323609271860E+08, -1.955302476401711E+08, 9.885227928469032E+05,
2461582.500000000, A.D. 2027-Jun-26 00:00:00.0000, 3.109901846030911E+08, -1.864763176844198E+08, 1.995433316138990E+06,
2461589.500000000, A.D. 2027-Jul-03 00:00:00.0000, 3.170314452742363E+08, -1.772325564733319E+08, 3.000312488813072E+06,
2461596.500000000, A.D. 2027-Jul-10 00:00:00.0000, 3.227515949352183E+08, -1.678092712023074E+08, 4.002152308391653E+06,
2461603.500000000, A.D. 2027-Jul-17 00:00:00.0000, 3.281463765361949E+08, -1.582168078257231E+08, 4.999956816943534E+06,
2461610.500000000, A.D. 2027-Jul-24 00:00:00.0000, 3.332118192456674E+08, -1.484655468697271E+08, 5.992742159055665E+06,
2461617.500000000, A.D. 2027-Jul-31 00:00:00.0000, 3.379442345114357E+08, -1.385658995852011E+08, 6.979536573576756E+06,
2461624.500000000, A.D. 2027-Aug-07 00:00:00.0000, 3.423402127345646E+08, -1.285283032593168E+08, 7.959380434907280E+06,
2461631.500000000, A.D. 2027-Aug-14 00:00:00.0000, 3.463966182715910E+08, -1.183632159151353E+08, 8.931326537692010E+06,
2461638.500000000, A.D. 2027-Aug-21 00:00:00.0000, 3.501105833920490E+08, -1.080811137411291E+08, 9.894440295815188E+06,
2461645.500000000, A.D. 2027-Aug-28 00:00:00.0000, 3.534795046263615E+08, -9.769249002137271E+07, 1.084779964123266E+07,
2461652.500000000, A.D. 2027-Sep-04 00:00:00.0000, 3.565010403283905E+08, -8.720785303811847E+07, 1.179049493753018E+07,
2461659.500000000, A.D. 2027-Sep-11 00:00:00.0000, 3.591731080623983E+08, -7.663772358386832E+07, 1.272162898409504E+07,
2461666.500000000, A.D. 2027-Sep-18 00:00:00.0000, 3.614938819507021E+08, -6.599263270859863E+07, 1.364031704713425E+07,
2461673.500000000, A.D. 2027-Sep-25 00:00:00.0000, 3.634617902134788E+08, -5.528311975410004E+07, 1.454568689155657E+07,
2461680.500000000, A.D. 2027-Oct-02 00:00:00.0000, 3.650755129795233E+08, -4.451973062176695E+07, 1.543687881046447E+07,
2461687.500000000, A.D. 2027-Oct-09 00:00:00.0000, 3.663339803959780E+08, -3.371301625315289E+07, 1.631304565143554E+07,
2461694.500000000, A.D. 2027-Oct-16 00:00:00.0000, 3.672363711066910E+08, -2.287353135531328E+07, 1.717335283114787E+07,
2461701.500000000, A.D. 2027-Oct-23 00:00:00.0000, 3.677821113635657E+08, -1.201183335646911E+07, 1.801697831568997E+07,
2461708.500000000, A.D. 2027-Oct-30 00:00:00.0000, 3.679708751455163E+08, -1.138480961123722E+06, 1.884311258327136E+07,
2461715.500000000, A.D. 2027-Nov-06 00:00:00.0000, 3.678025841226876E+08, 9.735968847338108E+06, 1.965095877016602E+07,
2461722.500000000, A.D. 2027-Nov-13 00:00:00.0000, 3.672774054872290E+08, 2.060096330121821E+07, 2.043973301510499E+07,
2461729.500000000, A.D. 2027-Nov-20 00:00:00.0000, 3.663957505534582E+08, 3.144595367129234E+07, 2.120866455883083E+07,
2461736.500000000, A.D. 2027-Nov-27 00:00:00.0000, 3.651582757398921E+08, 4.226039540309530E+07, 2.195699569357349E+07,
2461743.500000000, A.D. 2027-Dec-04 00:00:00.0000, 3.635658839073955E+08, 5.303374950384354E+07, 2.268398182431407E+07,
2461750.500000000, A.D. 2027-Dec-11 00:00:00.0000, 3.616197255028465E+08, 6.375548423851043E+07, 2.338889161548854E+07,
2461757.500000000, A.D. 2027-Dec-18 00:00:00.0000, 3.593211997832103E+08, 7.441507681782788E+07, 2.407100717217929E+07,
2461764.500000000, A.D. 2027-Dec-25 00:00:00.0000, 3.566719562714631E+08, 8.500201509731542E+07, 2.472962424364252E+07,
2461771.500000000, A.D. 2028-Jan-01 00:00:00.0000, 3.536738964841236E+08, 9.550579932209907E+07, 2.536405244833209E+07,
$$EOE